NORAD_CAT_ID,OBJECT_NAME,OBJECT_TYPE,EPOCH,MEAN_MOTION,ECCENTRICITY,INCLINATION,RA_OF_ASC_NODE,ARG_OF_PERICENTER,MEAN_ANOMALY,BSTAR,MEAN_MOTION_DOT,MEAN_MOTION_DDOT,TLE_LINE0,TLE_LINE1,TLE_LINE2,SEMIMAJOR_AXIS,PERIOD,APOGEE,PERIGEE,DECAYED
56473.0,STARLINK-5486,PAYLOAD,2024-02-11 14:20:32,14.98332137,0.0002656,69.9993,233.3757,271.5379,88.5476,-2.0745e-05,-3.4e-06,0.0,0 STARLINK-5486,1 56473U 23064AB  24042.59760021 -.00000340  00000-0 -20745-4 0  9993,2 56473  69.9993 233.3757 0002656 271.5379  88.5476 14.98332137 42336,6950.186,96.107,573.897,570.205,0.0
56473.0,STARLINK-5486,PAYLOAD,2024-02-11 19:08:56,14.98331813,0.0002668,69.9994,232.8708,271.7256,88.3597,-2.2511e-05,-3.62e-06,0.0,0 STARLINK-5486,1 56473U 23064AB  24042.79788019 -.00000362  00000-0 -22511-4 0  9999,2 56473  69.9994 232.8708 0002668 271.7256  88.3597 14.98331813 42721,6950.187,96.107,573.907,570.198,0.0
56473.0,STARLINK-5486,PAYLOAD,2024-02-11 22:21:12,14.98333093,0.0002655,69.9994,232.5342,271.8475,88.238,-6.3114e-06,-1.68e-06,0.0,0 STARLINK-5486,1 56473U 23064AB  24042.93139863 -.00000168  00000-0 -63114-5 0  9991,2 56473  69.9994 232.5342 0002655 271.8475  88.2380 14.98333093 42385,6950.183,96.107,573.894,570.203,0.0
56473.0,STARLINK-5486,PAYLOAD,2024-02-12 14:22:33,14.98329235,0.0002684,69.9994,230.851,272.5682,87.5169,2.6409e-05,2.22e-06,0.0,0 STARLINK-5486,1 56473U 23064AB  24043.59899949  .00000222  00000-0  26409-4 0  9996,2 56473  69.9994 230.8510 0002684 272.5682  87.5169 14.98329235 42484,6950.195,96.107,573.926,570.195,0.0
56473.0,STARLINK-5486,PAYLOAD,2024-02-12 19:10:57,14.98329576,0.0002683,69.9995,230.346,272.5241,87.5611,2.9271e-05,2.56e-06,0.0,0 STARLINK-5486,1 56473U 23064AB  24043.79927921  .00000256  00000-0  29271-4 0  9997,2 56473  69.9995 230.3460 0002683 272.5241  87.5611 14.98329576 42877,6950.194,96.107,573.924,570.194,0.0
56473.0,STARLINK-5486,PAYLOAD,2024-02-12 22:23:13,14.98330471,0.0002677,69.9995,230.0094,272.7891,87.2962,3.7934e-05,3.6e-06,0.0,0 STARLINK-5486,1 56473U 23064AB  24043.93279827  .00000360  00000-0  37934-4 0  9999,2 56473  69.9995 230.0094 0002677 272.7891  87.2962 14.98330471 42538,6950.191,96.107,573.917,570.196,0.0
56473.0,STARLINK-5486,PAYLOAD,2024-02-13 14:24:34,14.98331872,0.0002632,69.9996,228.3263,271.4131,88.6727,-1.8286e-06,-1.15e-06,0.0,0 STARLINK-5486,1 56473U 23064AB  24044.60039793 -.00000115  00000-0 -18286-5 0  9990,2 56473  69.9996 228.3263 0002632 271.4131  88.6727 14.98331872 42632,6950.187,96.107,573.881,570.223,0.0
56473.0,STARLINK-5486,PAYLOAD,2024-02-13 20:49:06,14.98331924,0.0002632,69.9995,227.6531,270.3219,89.7638,-1.8172e-06,-1.15e-06,0.0,0 STARLINK-5486,1 56473U 23064AB  24044.86743744 -.00000115  00000-0 -18172-5 0  9990,2 56473  69.9995 227.6531 0002632 270.3219  89.7638 14.98331924 43032,6950.187,96.107,573.881,570.223,0.0
56473.0,STARLINK-5486,PAYLOAD,2024-02-13 22:25:14,14.98332184,0.0002628,69.9995,227.4847,270.2856,89.8002,1.2673e-06,-7.8e-07,0.0,0 STARLINK-5486,1 56473U 23064AB  24044.93419710 -.00000078  00000-0  12673-5 0  9998,2 56473  69.9995 227.4847 0002628 270.2856  89.8002 14.98332184 42686,6950.186,96.107,573.878,570.225,0.0
56473.0,STARLINK-5486,PAYLOAD,2024-02-14 14:26:35,14.9832769,0.0002593,69.9996,225.8016,269.6111,90.4751,-3.2567e-05,-4.81e-06,0.0,0 STARLINK-5486,1 56473U 23064AB  24045.60180079 -.00000481  00000-0 -32567-4 0  9998,2 56473  69.9996 225.8016 0002593 269.6111  90.4751 14.98327690 42780,6950.2,96.107,573.867,570.263,0.0
56473.0,STARLINK-5486,PAYLOAD,2024-02-14 22:27:16,14.98326981,0.0002618,69.9996,224.9599,270.1778,89.9081,-3.8177e-05,-5.48e-06,0.0,0 STARLINK-5486,1 56473U 23064AB  24045.93560192 -.00000548  00000-0 -38177-4 0  9999,2 56473  69.9996 224.9599 0002618 270.1778  89.9081 14.98326981 42837,6950.202,96.107,573.887,570.248,0.0
56473.0,STARLINK-5486,PAYLOAD,2024-02-15 14:28:36,14.98333362,0.0002715,69.9994,223.2766,268.7428,91.342,2.7859e-05,2.39e-06,0.0,0 STARLINK-5486,1 56473U 23064AB  24046.60319557  .00000239  00000-0  27859-4 0  9991,2 56473  69.9994 223.2766 0002715 268.7428  91.3420 14.98333362 42932,6950.182,96.107,573.934,570.161,0.0
56473.0,STARLINK-5486,PAYLOAD,2024-02-15 19:17:00,14.98333531,0.0002721,69.9994,222.7716,269.5823,90.5024,2.8755e-05,2.5e-06,0.0,0 STARLINK-5486,1 56473U 23064AB  24046.80347508  .00000250  00000-0  28755-4 0  9999,2 56473  69.9994 222.7716 0002721 269.5823  90.5024 14.98333531 43329,6950.182,96.107,573.938,570.156,0.0
56473.0,STARLINK-5486,PAYLOAD,2024-02-15 22:29:16,14.98334843,0.0002715,69.9994,222.4349,269.7283,90.3565,4.2343e-05,4.12e-06,0.0,0 STARLINK-5486,1 56473U 23064AB  24046.93699357  .00000412  00000-0  42343-4 0  9994,2 56473  69.9994 222.4349 0002715 269.7283  90.3565 14.98334843 42989,6950.178,96.107,573.93,570.156,0.0
56473.0,STARLINK-5486,PAYLOAD,2024-02-16 14:30:37,14.98326938,0.0002755,69.9993,220.7511,269.9131,90.1712,4.1921e-05,4.07e-06,0.0,0 STARLINK-5486,1 56473U 23064AB  24047.60459806  .00000407  00000-0  41921-4 0  9997,2 56473  69.9993 220.7511 0002755 269.9131  90.1712 14.98326938 43088,6950.202,96.107,573.982,570.153,0.0
56473.0,STARLINK-5486,PAYLOAD,2024-02-16 19:19:01,14.98328658,0.0002775,69.9994,220.2461,270.0534,90.0307,3.2294e-05,2.92e-06,0.0,0 STARLINK-5486,1 56473U 23064AB  24047.80487742  .00000292  00000-0  32294-4 0  9994,2 56473  69.9994 220.2461 0002775 270.0534  90.0307 14.98328658 43473,6950.197,96.107,573.991,570.133,0.0
56473.0,STARLINK-5486,PAYLOAD,2024-02-16 20:55:09,14.98329332,0.0002784,69.9994,220.0778,270.1997,89.8843,3.786e-05,3.59e-06,0.0,0 STARLINK-5486,1 56473U 23064AB  24047.87163682  .00000359  00000-0  37860-4 0  9993,2 56473  69.9994 220.0778 0002784 270.1997  89.8843 14.98329332 43129,6950.195,96.107,573.995,570.125,0.0
56473.0,STARLINK-5486,PAYLOAD,2024-02-17 14:32:38,14.98329837,0.0002768,69.9996,218.2264,269.8466,90.2376,-3.0988e-05,-4.63e-06,0.0,0 STARLINK-5486,1 56473U 23064AB  24048.60599837 -.00000463  00000-0 -30988-4 0  9992,2 56473  69.9996 218.2264 0002768 269.8466  90.2376 14.98329837 43237,6950.193,96.107,573.982,570.135,0.0
56473.0,STARLINK-5486,PAYLOAD,2024-02-17 19:21:02,14.98330151,0.0002804,69.9996,217.7212,269.3917,90.6921,-4.8833e-05,-6.76e-06,0.0,0 STARLINK-5486,1 56473U 23064AB  24048.80627852 -.00000676  00000-0 -48833-4 0  9997,2 56473  69.9996 217.7212 0002804 269.3917  90.6921 14.98330151 43625,6950.192,96.107,574.006,570.109,0.0
56473.0,STARLINK-5486,PAYLOAD,2024-02-17 20:57:10,14.98330693,0.00028,69.9997,217.5529,269.4315,90.6523,-4.1456e-05,-5.88e-06,0.0,0 STARLINK-5486,1 56473U 23064AB  24048.87303795 -.00000588  00000-0 -41456-4 0  9997,2 56473  69.9997 217.5529 0002800 269.4315  90.6523 14.98330693 43274,6950.191,96.107,574.002,570.11,0.0
56473.0,STARLINK-5486,PAYLOAD,2024-02-18 14:34:38,14.98331962,0.0002875,69.9996,215.7011,269.8214,90.2616,5.0132e-05,5.05e-06,0.0,0 STARLINK-5486,1 56473U 23064AB  24049.60739341  .00000505  00000-0  50132-4 0  9997,2 56473  69.9996 215.7011 0002875 269.8214  90.2616 14.98331962 43384,6950.187,96.107,574.05,570.054,0.0
56473.0,STARLINK-5486,PAYLOAD,2024-02-18 19:23:02,14.98335744,0.0002885,69.9996,215.1965,270.409,89.6738,5.7856e-05,5.97e-06,0.0,0 STARLINK-5486,1 56473U 23064AB  24049.80767034  .00000597  00000-0  57856-4 0  9990,2 56473  69.9996 215.1965 0002885 270.4090  89.6738 14.98335744 43779,6950.175,96.107,574.045,570.035,0.0
56473.0,STARLINK-5486,PAYLOAD,2024-02-18 20:59:10,14.98335993,0.0002883,69.9997,215.0281,270.4333,89.6496,5.9721e-05,6.2e-06,0.0,0 STARLINK-5486,1 56473U 23064AB  24049.87442989  .00000620  00000-0  59721-4 0  9996,2 56473  69.9997 215.0281 0002883 270.4333  89.6496 14.98335993 43427,6950.174,96.107,574.043,570.036,0.0
56473.0,STARLINK-5486,PAYLOAD,2024-02-19 11:24:24,14.98269908,0.0002591,69.9997,213.5133,274.1347,85.9516,0.00088833,0.00010506,0.0,0 STARLINK-5486,1 56473U 23064AB  24050.47528183  .00010506  00000-0  88833-3 0  9994,2 56473  69.9997 213.5133 0002591 274.1347  85.9516 14.98269908 43871,6950.379,96.111,574.045,570.443,0.0
56473.0,STARLINK-5486,PAYLOAD,2024-02-19 14:36:40,14.98326279,0.0002872,69.9998,213.1767,270.2979,89.7851,-3.2285e-05,-4.78e-06,0.0,0 STARLINK-5486,1 56473U 23064AB  24050.60879829 -.00000478  00000-0 -32285-4 0  9995,2 56473  69.9998 213.1767 0002872 270.2979  89.7851 14.98326279 43533,6950.204,96.107,574.065,570.073,0.0
56473.0,STARLINK-5486,PAYLOAD,2024-02-19 19:25:04,14.98322161,0.0003193,69.9998,212.672,271.9717,88.1076,3.4779e-05,3.22e-06,0.0,0 STARLINK-5486,1 56473U 23064AB  24050.80907933  .00000322  00000-0  34779-4 0  9991,2 56473  69.9998 212.6720 0003193 271.9717  88.1076 14.98322161 43922,6950.217,96.108,574.301,569.863,0.0
56473.0,STARLINK-5486,PAYLOAD,2024-02-19 21:01:12,14.98330499,0.0002861,69.9999,212.5036,269.7378,90.3453,-9.1104e-05,-1.18e-05,0.0,0 STARLINK-5486,1 56473U 23064AB  24050.87583730 -.00001180  00000-0 -91104-4 0  9993,2 56473  69.9999 212.5036 0002861 269.7378  90.3453 14.98330499 43579,6950.191,96.107,574.045,570.068,0.0
56473.0,STARLINK-5486,PAYLOAD,2024-02-20 11:26:24,14.98333206,0.000289,69.9999,210.9886,271.597,88.4858,-4.1737e-06,-1.43e-06,0.0,0 STARLINK-5486,1 56473U 23064AB  24051.47667367 -.00000143  00000-0 -41737-5 0  9995,2 56473  69.9999 210.9886 0002890 271.5970  88.4858 14.98333206 44022,6950.183,96.107,574.057,570.039,0.0
56473.0,STARLINK-5486,PAYLOAD,2024-02-20 14:38:40,14.98331515,0.0002954,69.9999,210.6523,270.9272,89.1548,1.4809e-05,8.4e-07,0.0,0 STARLINK-5486,1 56473U 23064AB  24051.61019380  .00000084  00000-0  14809-4 0  9998,2 56473  69.9999 210.6523 0002954 270.9272  89.1548 14.98331515 43682,6950.188,96.107,574.106,570.0,0.0
56473.0,STARLINK-5486,PAYLOAD,2024-02-20 21:03:12,14.98333431,0.0002953,69.9996,209.978,271.3214,88.7606,-1.1494e-05,-2.3e-06,0.0,0 STARLINK-5486,1 56473U 23064AB  24051.87723294 -.00000230  00000-0 -11494-4 0  9994,2 56473  69.9996 209.9780 0002953 271.3214  88.7606 14.98333431 43729,6950.182,96.107,574.1,569.995,0.0
